[{"OBJECT_NAME":"STARLINK-1470","OBJECT_ID":"2020-038AU","EPOCH":"2026-03-09T14:36:51.476832","MEAN_MOTION":15.2807486,"ECCENTRICITY":0.0002444,"INCLINATION":53.048,"RA_OF_ASC_NODE":174.6971,"ARG_OF_PERICENTER":12.8687,"MEAN_ANOMALY":347.2373,"EPHEMERIS_TYPE":0,"CLASSIFICATION_TYPE":"U","NORAD_CAT_ID":45772,"ELEMENT_SET_NO":999,"REV_AT_EPOCH":31706,"BSTAR":0.0019687,"MEAN_MOTION_DOT":0.00054678,"MEAN_MOTION_DDOT":0},{"OBJECT_NAME":"STARLINK-34875","OBJECT_ID":"2025-212P","EPOCH":"2026-03-09T23:15:33.499008","MEAN_MOTION":15.30207624,"ECCENTRICITY":0.00011077,"INCLINATION":53.1611,"RA_OF_ASC_NODE":344.5688,"ARG_OF_PERICENTER":97.3126,"MEAN_ANOMALY":262.8001,"EPHEMERIS_TYPE":0,"CLASSIFICATION_TYPE":"U","NORAD_CAT_ID":65689,"ELEMENT_SET_NO":999,"REV_AT_EPOCH":2728,"BSTAR":0.00099288129,"MEAN_MOTION_DOT":0.00029169,"MEAN_MOTION_DDOT":0}]
